[{"OBJECT_NAME":"STARLINK-30081","OBJECT_ID":"2023-113W","EPOCH":"2026-03-09T22:00:01.999584","MEAN_MOTION":15.27475229,"ECCENTRICITY":0.00013446,"INCLINATION":43.0008,"RA_OF_ASC_NODE":14.4731,"ARG_OF_PERICENTER":280.0341,"MEAN_ANOMALY":81.2569,"EPHEMERIS_TYPE":0,"CLASSIFICATION_TYPE":"U","NORAD_CAT_ID":57515,"ELEMENT_SET_NO":999,"REV_AT_EPOCH":567,"BSTAR":0.001883085,"MEAN_MOTION_DOT":0.00051755,"MEAN_MOTION_DDOT":0},{"OBJECT_NAME":"CZ-6A DEB","OBJECT_ID":"2024-140AAN","EPOCH":"2026-03-09T15:08:07.195776","MEAN_MOTION":15.20547394,"ECCENTRICITY":0.0064261,"INCLINATION":89.3669,"RA_OF_ASC_NODE":306.3092,"ARG_OF_PERICENTER":93.6352,"MEAN_ANOMALY":267.2246,"EPHEMERIS_TYPE":0,"CLASSIFICATION_TYPE":"U","NORAD_CAT_ID":61480,"ELEMENT_SET_NO":999,"REV_AT_EPOCH":8198,"BSTAR":0.0033609,"MEAN_MOTION_DOT":0.00078405,"MEAN_MOTION_DDOT":0}]
